STARLINK-36962          
1 68269U 26055H   26088.16668981 -.01215748  45034-3 -30219-2 0  9994
2 68269  53.1575 239.9314 0000842  66.6837 113.6929 15.95215100  2765
STARLINK-37028          
1 68270U 26055J   26088.16668981 -.01239148  46711-3 -30499-2 0  9999
2 68270  53.1575 239.9096 0000757  66.9113 123.6890 15.95401325  2763
STARLINK-37029          
1 68271U 26055K   26088.16668981 -.01235803  46432-3 -30589-2 0  9994
2 68271  53.1574 239.9173 0000771  66.4285 120.6753 15.95296595  2766
STARLINK-36974          
1 68272U 26055L   26088.16668981 -.01246186  47248-3 -30490-2 0  9998
2 68272  53.1574 239.9009 0000813  69.8372 125.0760 15.95513212  2761
STARLINK-37019          
1 68273U 26055M   26088.16668981 -.01249500  47527-3 -30399-2 0  9990
2 68273  53.1573 239.8940 0000736  66.7836 131.1759 15.95617741  2767
STARLINK-37129          
1 68274U 26055N   26088.16668981 -.01257530  48140-3 -30410-2 0  9999
2 68274  53.1572 239.8871 0000787  71.2777 130.1763 15.95730826  2765
STARLINK-37123          
1 68275U 26055P   26088.16668981 -.01253043  47877-3 -30133-2 0  9993
2 68275  53.1574 239.8810 0000794  67.4918 136.8918 15.95832557  2762
STARLINK-37125          
1 68276U 26055Q   26088.16668981 -.01260581  48462-3 -30121-2 0  9997
2 68276  53.1572 239.8725 0000810  65.2096 143.3230 15.95951908  2760
STARLINK-36989          
1 68277U 26055R   26088.16668981 -.01273190  49523-3 -29857-2 0  9991
2 68277  53.1572 239.8504 0000753  74.1116 145.1229 15.96298239  2764
STARLINK-36982          
1 68278U 26055S   26088.16668981 -.01272701  49431-3 -30029-2 0  9990
2 68278  53.1573 239.8579 0000764  71.8405 144.0655 15.96185651  2769
STARLINK-36934          
1 68279U 26055T   26088.16668981 -.01255397  48155-3 -29813-2 0  9994
2 68279  53.1572 239.8646 0000904  68.3534 144.1963 15.96063808  2766
STARLINK-37070          
1 68280U 26055U   26088.16668981 -.01262686  48842-3 -29414-2 0  9995
2 68280  53.1573 239.8419 0000653  70.2786 152.9902 15.96418604  2767
