CCSDS_OMM_VERS = 2.0
CREATION_DATE  = 
ORIGINATOR     = 

OBJECT_NAME    = STARLINK-36962
OBJECT_ID      = 2026-055H
CENTER_NAME    = EARTH
REF_FRAME      = TEME
TIME_SYSTEM    = UTC
MEAN_ELEMENT_THEORY = SGP/SGP4

EPOCH          = 2026-03-29T04:00:01.999584
MEAN_MOTION    = 15.95215100
ECCENTRICITY   = .0000842
INCLINATION    = 53.1575
RA_OF_ASC_NODE = 239.9314
ARG_OF_PERICENTER = 66.6837
MEAN_ANOMALY   = 113.6929

EPHEMERIS_TYPE = 0
CLASSIFICATION_TYPE = U
NORAD_CAT_ID   = 68269
ELEMENT_SET_NO = 999
REV_AT_EPOCH   = 276
BSTAR          = -.30219E-2
MEAN_MOTION_DOT = -.1215748E-1
MEAN_MOTION_DDOT = .45034E-3

CCSDS_OMM_VERS = 2.0
CREATION_DATE  = 
ORIGINATOR     = 

OBJECT_NAME    = STARLINK-37028
OBJECT_ID      = 2026-055J
CENTER_NAME    = EARTH
REF_FRAME      = TEME
TIME_SYSTEM    = UTC
MEAN_ELEMENT_THEORY = SGP/SGP4

EPOCH          = 2026-03-29T04:00:01.999584
MEAN_MOTION    = 15.95401325
ECCENTRICITY   = .0000757
INCLINATION    = 53.1575
RA_OF_ASC_NODE = 239.9096
ARG_OF_PERICENTER = 66.9113
MEAN_ANOMALY   = 123.6890

EPHEMERIS_TYPE = 0
CLASSIFICATION_TYPE = U
NORAD_CAT_ID   = 68270
ELEMENT_SET_NO = 999
REV_AT_EPOCH   = 276
BSTAR          = -.30499E-2
MEAN_MOTION_DOT = -.1239148E-1
MEAN_MOTION_DDOT = .46711E-3

CCSDS_OMM_VERS = 2.0
CREATION_DATE  = 
ORIGINATOR     = 

OBJECT_NAME    = STARLINK-37029
OBJECT_ID      = 2026-055K
CENTER_NAME    = EARTH
REF_FRAME      = TEME
TIME_SYSTEM    = UTC
MEAN_ELEMENT_THEORY = SGP/SGP4

EPOCH          = 2026-03-29T04:00:01.999584
MEAN_MOTION    = 15.95296595
ECCENTRICITY   = .0000771
INCLINATION    = 53.1574
RA_OF_ASC_NODE = 239.9173
ARG_OF_PERICENTER = 66.4285
MEAN_ANOMALY   = 120.6753

EPHEMERIS_TYPE = 0
CLASSIFICATION_TYPE = U
NORAD_CAT_ID   = 68271
ELEMENT_SET_NO = 999
REV_AT_EPOCH   = 276
BSTAR          = -.30589E-2
MEAN_MOTION_DOT = -.1235803E-1
MEAN_MOTION_DDOT = .46432E-3

CCSDS_OMM_VERS = 2.0
CREATION_DATE  = 
ORIGINATOR     = 

OBJECT_NAME    = STARLINK-36974
OBJECT_ID      = 2026-055L
CENTER_NAME    = EARTH
REF_FRAME      = TEME
TIME_SYSTEM    = UTC
MEAN_ELEMENT_THEORY = SGP/SGP4

EPOCH          = 2026-03-29T04:00:01.999584
MEAN_MOTION    = 15.95513212
ECCENTRICITY   = .0000813
INCLINATION    = 53.1574
RA_OF_ASC_NODE = 239.9009
ARG_OF_PERICENTER = 69.8372
MEAN_ANOMALY   = 125.0760

EPHEMERIS_TYPE = 0
CLASSIFICATION_TYPE = U
NORAD_CAT_ID   = 68272
ELEMENT_SET_NO = 999
REV_AT_EPOCH   = 276
BSTAR          = -.3049E-2
MEAN_MOTION_DOT = -.1246186E-1
MEAN_MOTION_DDOT = .47248E-3

CCSDS_OMM_VERS = 2.0
CREATION_DATE  = 
ORIGINATOR     = 

OBJECT_NAME    = STARLINK-37019
OBJECT_ID      = 2026-055M
CENTER_NAME    = EARTH
REF_FRAME      = TEME
TIME_SYSTEM    = UTC
MEAN_ELEMENT_THEORY = SGP/SGP4

EPOCH          = 2026-03-29T04:00:01.999584
MEAN_MOTION    = 15.95617741
ECCENTRICITY   = .0000736
INCLINATION    = 53.1573
RA_OF_ASC_NODE = 239.8940
ARG_OF_PERICENTER = 66.7836
MEAN_ANOMALY   = 131.1759

EPHEMERIS_TYPE = 0
CLASSIFICATION_TYPE = U
NORAD_CAT_ID   = 68273
ELEMENT_SET_NO = 999
REV_AT_EPOCH   = 276
BSTAR          = -.30399E-2
MEAN_MOTION_DOT = -.12495E-1
MEAN_MOTION_DDOT = .47527E-3

CCSDS_OMM_VERS = 2.0
CREATION_DATE  = 
ORIGINATOR     = 

OBJECT_NAME    = STARLINK-37129
OBJECT_ID      = 2026-055N
CENTER_NAME    = EARTH
REF_FRAME      = TEME
TIME_SYSTEM    = UTC
MEAN_ELEMENT_THEORY = SGP/SGP4

EPOCH          = 2026-03-29T04:00:01.999584
MEAN_MOTION    = 15.95730826
ECCENTRICITY   = .0000787
INCLINATION    = 53.1572
RA_OF_ASC_NODE = 239.8871
ARG_OF_PERICENTER = 71.2777
MEAN_ANOMALY   = 130.1763

EPHEMERIS_TYPE = 0
CLASSIFICATION_TYPE = U
NORAD_CAT_ID   = 68274
ELEMENT_SET_NO = 999
REV_AT_EPOCH   = 276
BSTAR          = -.3041E-2
MEAN_MOTION_DOT = -.125753E-1
MEAN_MOTION_DDOT = .4814E-3

CCSDS_OMM_VERS = 2.0
CREATION_DATE  = 
ORIGINATOR     = 

OBJECT_NAME    = STARLINK-37123
OBJECT_ID      = 2026-055P
CENTER_NAME    = EARTH
REF_FRAME      = TEME
TIME_SYSTEM    = UTC
MEAN_ELEMENT_THEORY = SGP/SGP4

EPOCH          = 2026-03-29T04:00:01.999584
MEAN_MOTION    = 15.95832557
ECCENTRICITY   = .0000794
INCLINATION    = 53.1574
RA_OF_ASC_NODE = 239.8810
ARG_OF_PERICENTER = 67.4918
MEAN_ANOMALY   = 136.8918

EPHEMERIS_TYPE = 0
CLASSIFICATION_TYPE = U
NORAD_CAT_ID   = 68275
ELEMENT_SET_NO = 999
REV_AT_EPOCH   = 276
BSTAR          = -.30133E-2
MEAN_MOTION_DOT = -.1253043E-1
MEAN_MOTION_DDOT = .47877E-3

CCSDS_OMM_VERS = 2.0
CREATION_DATE  = 
ORIGINATOR     = 

OBJECT_NAME    = STARLINK-37125
OBJECT_ID      = 2026-055Q
CENTER_NAME    = EARTH
REF_FRAME      = TEME
TIME_SYSTEM    = UTC
MEAN_ELEMENT_THEORY = SGP/SGP4

EPOCH          = 2026-03-29T04:00:01.999584
MEAN_MOTION    = 15.95951908
ECCENTRICITY   = .000081
INCLINATION    = 53.1572
RA_OF_ASC_NODE = 239.8725
ARG_OF_PERICENTER = 65.2096
MEAN_ANOMALY   = 143.3230

EPHEMERIS_TYPE = 0
CLASSIFICATION_TYPE = U
NORAD_CAT_ID   = 68276
ELEMENT_SET_NO = 999
REV_AT_EPOCH   = 276
BSTAR          = -.30121E-2
MEAN_MOTION_DOT = -.1260581E-1
MEAN_MOTION_DDOT = .48462E-3

CCSDS_OMM_VERS = 2.0
CREATION_DATE  = 
ORIGINATOR     = 

OBJECT_NAME    = STARLINK-36989
OBJECT_ID      = 2026-055R
CENTER_NAME    = EARTH
REF_FRAME      = TEME
TIME_SYSTEM    = UTC
MEAN_ELEMENT_THEORY = SGP/SGP4

EPOCH          = 2026-03-29T04:00:01.999584
MEAN_MOTION    = 15.96298239
ECCENTRICITY   = .0000753
INCLINATION    = 53.1572
RA_OF_ASC_NODE = 239.8504
ARG_OF_PERICENTER = 74.1116
MEAN_ANOMALY   = 145.1229

EPHEMERIS_TYPE = 0
CLASSIFICATION_TYPE = U
NORAD_CAT_ID   = 68277
ELEMENT_SET_NO = 999
REV_AT_EPOCH   = 276
BSTAR          = -.29857E-2
MEAN_MOTION_DOT = -.127319E-1
MEAN_MOTION_DDOT = .49523E-3

CCSDS_OMM_VERS = 2.0
CREATION_DATE  = 
ORIGINATOR     = 

OBJECT_NAME    = STARLINK-36982
OBJECT_ID      = 2026-055S
CENTER_NAME    = EARTH
REF_FRAME      = TEME
TIME_SYSTEM    = UTC
MEAN_ELEMENT_THEORY = SGP/SGP4

EPOCH          = 2026-03-29T04:00:01.999584
MEAN_MOTION    = 15.96185651
ECCENTRICITY   = .0000764
INCLINATION    = 53.1573
RA_OF_ASC_NODE = 239.8579
ARG_OF_PERICENTER = 71.8405
MEAN_ANOMALY   = 144.0655

EPHEMERIS_TYPE = 0
CLASSIFICATION_TYPE = U
NORAD_CAT_ID   = 68278
ELEMENT_SET_NO = 999
REV_AT_EPOCH   = 276
BSTAR          = -.30029E-2
MEAN_MOTION_DOT = -.1272701E-1
MEAN_MOTION_DDOT = .49431E-3

CCSDS_OMM_VERS = 2.0
CREATION_DATE  = 
ORIGINATOR     = 

OBJECT_NAME    = STARLINK-36934
OBJECT_ID      = 2026-055T
CENTER_NAME    = EARTH
REF_FRAME      = TEME
TIME_SYSTEM    = UTC
MEAN_ELEMENT_THEORY = SGP/SGP4

EPOCH          = 2026-03-29T04:00:01.999584
MEAN_MOTION    = 15.96063808
ECCENTRICITY   = .0000904
INCLINATION    = 53.1572
RA_OF_ASC_NODE = 239.8646
ARG_OF_PERICENTER = 68.3534
MEAN_ANOMALY   = 144.1963

EPHEMERIS_TYPE = 0
CLASSIFICATION_TYPE = U
NORAD_CAT_ID   = 68279
ELEMENT_SET_NO = 999
REV_AT_EPOCH   = 276
BSTAR          = -.29813E-2
MEAN_MOTION_DOT = -.1255397E-1
MEAN_MOTION_DDOT = .48155E-3

CCSDS_OMM_VERS = 2.0
CREATION_DATE  = 
ORIGINATOR     = 

OBJECT_NAME    = STARLINK-37070
OBJECT_ID      = 2026-055U
CENTER_NAME    = EARTH
REF_FRAME      = TEME
TIME_SYSTEM    = UTC
MEAN_ELEMENT_THEORY = SGP/SGP4

EPOCH          = 2026-03-29T04:00:01.999584
MEAN_MOTION    = 15.96418604
ECCENTRICITY   = .0000653
INCLINATION    = 53.1573
RA_OF_ASC_NODE = 239.8419
ARG_OF_PERICENTER = 70.2786
MEAN_ANOMALY   = 152.9902

EPHEMERIS_TYPE = 0
CLASSIFICATION_TYPE = U
NORAD_CAT_ID   = 68280
ELEMENT_SET_NO = 999
REV_AT_EPOCH   = 276
BSTAR          = -.29414E-2
MEAN_MOTION_DOT = -.1262686E-1
MEAN_MOTION_DDOT = .48842E-3

